{"type": "FeatureCollection", "features": [ {"type": "Feature", "properties": {"norad_id": 34468, "name": "COSMOS 2251 DEB", "group": "cosmos-2251-debris", "lat": 24.68252331324307, "lon": -84.86661496457661, "alt_km": 733.6950119587091, "timestamp": "2025-12-20T11:30:28.770485+00:00", "meta": {"OBJECT_NAME": "COSMOS 2251 DEB", "OBJECT_ID": "1993-036TM", "EPOCH": "2025-12-20T02:29:52.435104", "MEAN_MOTION": 14.47642815, "ECCENTRICITY": 0.0076313, "INCLINATION": 74.013, "RA_OF_ASC_NODE": 103.4075, "ARG_OF_PERICENTER": 246.8382, "MEAN_ANOMALY": 112.4724, "EPHEMERIS_TYPE": 0, "CLASSIFICATION_TYPE": "U", "NORAD_CAT_ID": 34468, "ELEMENT_SET_NO": 999, "REV_AT_EPOCH": 88568, "BSTAR": 0.00024538, "MEAN_MOTION_DOT": 9.08e-06, "MEAN_MOTION_DDOT": 0}, "tle": {"line1": "1 34468U 93036TM  25354.10407911  .00000908  00000+0  24538-3 0  9999", "line2": "2 34468  74.0130 103.4075 0076313 246.8382 112.4724 14.47642815885683"}}, "geometry": {"type": "Point", "coordinates": [-84.86661496457661, 24.68252331324307]}}, {"type": "Feature", "properties": {"norad_id": 34472, "name": "COSMOS 2251 DEB", "group": "cosmos-2251-debris", "lat": -5.0904325541141775, "lon": -93.1275305836366, "alt_km": 789.2478873193822, "timestamp": "2025-12-20T11:30:28.770495+00:00", "meta": {"OBJECT_NAME": "COSMOS 2251 DEB", "OBJECT_ID": "1993-036TR", "EPOCH": "2025-12-20T00:04:31.066176", "MEAN_MOTION": 13.70341153, "ECCENTRICITY": 0.0327864, "INCLINATION": 74.0847, "RA_OF_ASC_NODE": 86.1992, "ARG_OF_PERICENTER": 215.6331, "MEAN_ANOMALY": 142.2503, "EPHEMERIS_TYPE": 0, "CLASSIFICATION_TYPE": "U", "NORAD_CAT_ID": 34472, "ELEMENT_SET_NO": 999, "REV_AT_EPOCH": 83826, "BSTAR": 0.00049176, "MEAN_MOTION_DOT": 6.12e-06, "MEAN_MOTION_DDOT": 0}, "tle": {"line1": "1 34472U 93036TR  25354.00313734  .00000612  00000+0  49176-3 0  9999", "line2": "2 34472  74.0847  86.1992 0327864 215.6331 142.2503 13.70341153838260"}}, "geometry": {"type": "Point", "coordinates": [-93.1275305836366, -5.0904325541141775]}}, {"type": "Feature", "properties": {"norad_id": 34474, "name": "COSMOS 2251 DEB", "group": "cosmos-2251-debris", "lat": -60.392631795538584, "lon": 162.82011747158202, "alt_km": 987.4715239538473, "timestamp": "2025-12-20T11:30:28.770505+00:00", "meta": {"OBJECT_NAME": "COSMOS 2251 DEB", "OBJECT_ID": "1993-036TT", "EPOCH": "2025-12-20T00:26:11.944320", "MEAN_MOTION": 14.06465535, "ECCENTRICITY": 0.0198967, "INCLINATION": 74.0782, "RA_OF_ASC_NODE": 313.4709, "ARG_OF_PERICENTER": 25.5082, "MEAN_ANOMALY": 45.8294, "EPHEMERIS_TYPE": 0, "CLASSIFICATION_TYPE": "U", "NORAD_CAT_ID": 34474, "ELEMENT_SET_NO": 999, "REV_AT_EPOCH": 85611, "BSTAR": 0.0017397, "MEAN_MOTION_DOT": 3.419e-05, "MEAN_MOTION_DDOT": 0}, "tle": {"line1": "1 34474U 93036TT  25354.01819380  .00003419  00000+0  17397-2 0  9997", "line2": "2 34474  74.0782 313.4709 0198967  25.5082  45.8294 14.06465535856113"}}, "geometry": {"type": "Point", "coordinates": [162.82011747158202, -60.392631795538584]}}, {"type": "Feature", "properties": {"norad_id": 34476, "name": "COSMOS 2251 DEB", "group": "cosmos-2251-debris", "lat": -69.84620348586947, "lon": -59.14528636634445, "alt_km": 756.8970845016192, "timestamp": "2025-12-20T11:30:28.770515+00:00", "meta": {"OBJECT_NAME": "COSMOS 2251 DEB", "OBJECT_ID": "1993-036TV", "EPOCH": "2025-12-19T15:07:53.916960", "MEAN_MOTION": 13.82094314, "ECCENTRICITY": 0.0321638, "INCLINATION": 74.0055, "RA_OF_ASC_NODE": 70.8879, "ARG_OF_PERICENTER": 289.0132, "MEAN_ANOMALY": 67.6405, "EPHEMERIS_TYPE": 0, "CLASSIFICATION_TYPE": "U", "NORAD_CAT_ID": 34476, "ELEMENT_SET_NO": 999, "REV_AT_EPOCH": 83733, "BSTAR": 0.0025746, "MEAN_MOTION_DOT": 4.089e-05, "MEAN_MOTION_DDOT": 0}, "tle": {"line1": "1 34476U 93036TV  25353.63048515  .00004089  00000+0  25746-2 0  9991", "line2": "2 34476  74.0055  70.8879 0321638 289.0132  67.6405 13.82094314837331"}}, "geometry": {"type": "Point", "coordinates": [-59.14528636634445, -69.84620348586947]}}, {"type": "Feature", "properties": {"norad_id": 34477, "name": "COSMOS 2251 DEB", "group": "cosmos-2251-debris", "lat": 69.10696837394306, "lon": 103.57989066883252, "alt_km": 748.3704601347954, "timestamp": "2025-12-20T11:30:28.770525+00:00", "meta": {"OBJECT_NAME": "COSMOS 2251 DEB", "OBJECT_ID": "1993-036TW", "EPOCH": "2025-12-19T14:25:44.022144", "MEAN_MOTION": 14.56908213, "ECCENTRICITY": 0.0076837, "INCLINATION": 73.979, "RA_OF_ASC_NODE": 56.4262, "ARG_OF_PERICENTER": 242.32, "MEAN_ANOMALY": 269.6978, "EPHEMERIS_TYPE": 0, "CLASSIFICATION_TYPE": "U", "NORAD_CAT_ID": 34477, "ELEMENT_SET_NO": 999, "REV_AT_EPOCH": 88725, "BSTAR": 0.00052064, "MEAN_MOTION_DOT": 2.401e-05, "MEAN_MOTION_DDOT": 0}, "tle": {"line1": "1 34477U 93036TW  25353.60120396  .00002401  00000+0  52064-3 0  9997", "line2": "2 34477  73.9790  56.4262 0076837 242.3200 269.6978 14.56908213887257"}}, "geometry": {"type": "Point", "coordinates": [103.57989066883252, 69.10696837394306]}}, {"type": "Feature", "properties": {"norad_id": 34478, "name": "COSMOS 2251 DEB", "group": "cosmos-2251-debris", "lat": -50.53563744796083, "lon": -29.384602860070395, "alt_km": 549.595950752434, "timestamp": "2025-12-20T11:30:28.770535+00:00", "meta": {"OBJECT_NAME": "COSMOS 2251 DEB", "OBJECT_ID": "1993-036TX", "EPOCH": "2025-12-19T04:27:46.708992", "MEAN_MOTION": 15.08510334, "ECCENTRICITY": 0.0034275, "INCLINATION": 74.0409, "RA_OF_ASC_NODE": 353.6176, "ARG_OF_PERICENTER": 213.3529, "MEAN_ANOMALY": 270.9757, "EPHEMERIS_TYPE": 0, "CLASSIFICATION_TYPE": "U", "NORAD_CAT_ID": 34478, "ELEMENT_SET_NO": 999, "REV_AT_EPOCH": 89070, "BSTAR": 0.0020795, "MEAN_MOTION_DOT": 0.00033001, "MEAN_MOTION_DDOT": 0}, "tle": {"line1": "1 34478U 93036TX  25353.18595728  .00033001  00000+0  20795-2 0  9991", "line2": "2 34478  74.0409 353.6176 0034275 213.3529 270.9757 15.08510334890700"}}, "geometry": {"type": "Point", "coordinates": [-29.384602860070395, -50.53563744796083]}}, {"type": "Feature", "properties": {"norad_id": 34481, "name": "COSMOS 2251 DEB", "group": "cosmos-2251-debris", "lat": -44.310311304170426, "lon": 22.988140050068154, "alt_km": 799.0047651731766, "timestamp": "2025-12-20T11:30:28.770545+00:00", "meta": {"OBJECT_NAME": "COSMOS 2251 DEB", "OBJECT_ID": "1993-036UA", "EPOCH": "2025-12-19T22:37:11.351136", "MEAN_MOTION": 14.32574731, "ECCENTRICITY": 0.0070466, "INCLINATION": 73.9794, "RA_OF_ASC_NODE": 40.2607, "ARG_OF_PERICENTER": 213.2801, "MEAN_ANOMALY": 211.0067, "EPHEMERIS_TYPE": 0, "CLASSIFICATION_TYPE": "U", "NORAD_CAT_ID": 34481, "ELEMENT_SET_NO": 999, "REV_AT_EPOCH": 87552, "BSTAR": 0.00044504, "MEAN_MOTION_DOT": 1.215e-05, "MEAN_MOTION_DDOT": 0}, "tle": {"line1": "1 34481U 93036UA  25353.94249249  .00001215  00000+0  44504-3 0  9990", "line2": "2 34481  73.9794  40.2607 0070466 213.2801 211.0067 14.32574731875521"}}, "geometry": {"type": "Point", "coordinates": [22.988140050068154, -44.310311304170426]}}, {"type": "Feature", "properties": {"norad_id": 34482, "name": "COSMOS 2251 DEB", "group": "cosmos-2251-debris", "lat": 60.35350014257751, "lon": -121.19964525145838, "alt_km": 686.0487059824327, "timestamp": "2025-12-20T11:30:28.770555+00:00", "meta": {"OBJECT_NAME": "COSMOS 2251 DEB", "OBJECT_ID": "1993-036UB", "EPOCH": "2025-12-20T00:30:01.656000", "MEAN_MOTION": 14.69314639, "ECCENTRICITY": 0.0044596, "INCLINATION": 74.0359, "RA_OF_ASC_NODE": 209.4926, "ARG_OF_PERICENTER": 268.1232, "MEAN_ANOMALY": 251.3883, "EPHEMERIS_TYPE": 0, "CLASSIFICATION_TYPE": "U", "NORAD_CAT_ID": 34482, "ELEMENT_SET_NO": 999, "REV_AT_EPOCH": 88294, "BSTAR": 0.0010153, "MEAN_MOTION_DOT": 6.059e-05, "MEAN_MOTION_DDOT": 0}, "tle": {"line1": "1 34482U 93036UB  25354.02085250  .00006059  00000+0  10153-2 0  9994", "line2": "2 34482  74.0359 209.4926 0044596 268.1232 251.3883 14.69314639882942"}}, "geometry": {"type": "Point", "coordinates": [-121.19964525145838, 60.35350014257751]}}, {"type": "Feature", "properties": {"norad_id": 34544, "name": "COSMOS 2251 DEB", "group": "cosmos-2251-debris", "lat": 2.5141857579009645, "lon": -167.7746710451399, "alt_km": 1284.8401793166322, "timestamp": "2025-12-20T11:30:28.770565+00:00", "meta": {"OBJECT_NAME": "COSMOS 2251 DEB", "OBJECT_ID": "1993-036UE", "EPOCH": "2025-12-20T04:59:42.156384", "MEAN_MOTION": 13.54668603, "ECCENTRICITY": 0.0383772, "INCLINATION": 73.914, "RA_OF_ASC_NODE": 191.9386, "ARG_OF_PERICENTER": 219.0144, "MEAN_ANOMALY": 258.1342, "EPHEMERIS_TYPE": 0, "CLASSIFICATION_TYPE": "U", "NORAD_CAT_ID": 34544, "ELEMENT_SET_NO": 999, "REV_AT_EPOCH": 82983, "BSTAR": 0.00030521, "MEAN_MOTION_DOT": 3.11e-06, "MEAN_MOTION_DDOT": 0}, "tle": {"line1": "1 34544U 93036UE  25354.20812681  .00000311  00000+0  30521-3 0  9996", "line2": "2 34544  73.9140 191.9386 0383772 219.0144 258.1342 13.54668603829831"}}, "geometry": {"type": "Point", "coordinates": [-167.7746710451399, 2.5141857579009645]}}, {"type": "Feature", "properties": {"norad_id": 34546, "name": "COSMOS 2251 DEB", "group": "cosmos-2251-debris", "lat": -41.9503247510965, "lon": -140.15942667187727, "alt_km": 731.3045355229806, "timestamp": "2025-12-20T11:30:28.770575+00:00", "meta": {"OBJECT_NAME": "COSMOS 2251 DEB", "OBJECT_ID": "1993-036UG", "EPOCH": "2025-12-19T11:03:09.535392", "MEAN_MOTION": 14.45438225, "ECCENTRICITY": 0.0022033, "INCLINATION": 74.0308, "RA_OF_ASC_NODE": 236.6546, "ARG_OF_PERICENTER": 309.733, "MEAN_ANOMALY": 106.1055, "EPHEMERIS_TYPE": 0, "CLASSIFICATION_TYPE": "U", "NORAD_CAT_ID": 34546, "ELEMENT_SET_NO": 999, "REV_AT_EPOCH": 88123, "BSTAR": 0.00040131, "MEAN_MOTION_DOT": 1.39e-05, "MEAN_MOTION_DDOT": 0}, "tle": {"line1": "1 34546U 93036UG  25353.46052703  .00001390  00000+0  40131-3 0  9992", "line2": "2 34546  74.0308 236.6546 0022033 309.7330 106.1055 14.45438225881231"}}, "geometry": {"type": "Point", "coordinates": [-140.15942667187727, -41.9503247510965]}}]}